{
    "links": {
        "self": "http://www.neowsapp.com/rest/v1/neo/3475232?api_key=iIulBulltgU6a56xZRHN4H3l9WmuAYTsLGpBGhQ2"
    },
    "id": "3475232",
    "neo_reference_id": "3475232",
    "name": "(2009 VQ)",
    "designation": "2009 VQ",
    "nasa_jpl_url": "http://ssd.jpl.nasa.gov/sbdb.cgi?sstr=3475232",
    "absolute_magnitude_h": 26.3,
    "estimated_diameter": {
        "kilometers": {
            "estimated_diameter_min": 0.0146067964,
            "estimated_diameter_max": 0.0326617897
        },
        "meters": {
            "estimated_diameter_min": 14.6067964271,
            "estimated_diameter_max": 32.6617897446
        },
        "miles": {
            "estimated_diameter_min": 0.0090762397,
            "estimated_diameter_max": 0.020295089
        },
        "feet": {
            "estimated_diameter_min": 47.92256199,
            "estimated_diameter_max": 107.1581062656
        }
    },
    "is_potentially_hazardous_asteroid": false,
    "close_approach_data": [
        {
            "close_approach_date": "1960-09-22",
            "close_approach_date_full": "1960-Sep-22 12:45",
            "epoch_date_close_approach": -292677300000,
            "relative_velocity": {
                "kilometers_per_second": "12.6301965445",
                "kilometers_per_hour": "45468.7075601186",
                "miles_per_hour": "28252.4866503415"
            },
            "miss_distance": {
                "astronomical": "0.2054054",
                "lunar": "79.9027006",
                "kilometers": "30728210.326498",
                "miles": "19093624.5137524"
            },
            "orbiting_body": "Earth"
        },
        {
            "close_approach_date": "2009-11-06",
            "close_approach_date_full": "2009-Nov-06 20:27",
            "epoch_date_close_approach": 1257539220000,
            "relative_velocity": {
                "kilometers_per_second": "8.0551322209",
                "kilometers_per_hour": "28998.4759952386",
                "miles_per_hour": "18018.5252649304"
            },
            "miss_distance": {
                "astronomical": "0.0183653956",
                "lunar": "7.1441388884",
                "kilometers": "2747424.063467372",
                "miles": "1707170.1505068536"
            },
            "orbiting_body": "Earth"
        }
    ],
    "orbital_data": {
        "orbit_id": "9",
        "orbit_determination_date": "2017-04-06 08:59:18",
        "first_observation_date": "2009-11-08",
        "last_observation_date": "2009-11-22",
        "data_arc_in_days": 14,
        "observations_used": 56,
        "orbit_uncertainty": "7",
        "minimum_orbit_intersection": ".0223922",
        "jupiter_tisserand_invariant": "3.252",
        "epoch_osculation": "2459000.5",
        "eccentricity": ".5823618957761755",
        "semi_major_axis": "2.425438579602759",
        "inclination": "4.756839753254958",
        "ascending_node_longitude": "44.10221910742123",
        "orbital_period": "1379.697409248535",
        "perihelion_distance": "1.012955570296622",
        "perihelion_argument": "353.7163136289302",
        "aphelion_distance": "3.837921588908897",
        "perihelion_time": "2459267.908693696975",
        "mean_anomaly": "290.2259110689034",
        "mean_motion": ".2609267782825491",
        "equinox": "J2000",
        "orbit_class": {
            "orbit_class_type": "APO",
            "orbit_class_description": "Near-Earth asteroid orbits which cross the Earth’s orbit similar to that of 1862 Apollo",
            "orbit_class_range": "a (semi-major axis) > 1.0 AU; q (perihelion) < 1.017 AU"
        }
    },
    "is_sentry_object": false
}